UM5-RIBAT               
1 60554U 24149CQ  26068.79561721  .00004725  00000+0  37993-3 0  9991
2 60554  97.6776 147.9138 0003272  87.0399 273.1199 15.00468196 85282
STARLINK-34668          
1 64814U 25150AA  26068.52033217  .00004768  00000+0  40691-3 0  9998
2 64814  70.0026 134.7911 0003050 263.5528  96.5283 14.98347824 36490
